49206,ONEWEB-0340,2021,109.2,148.0,+,87.91,Active,1,LEO,Kazakhstan,UK,Commercial,Communications,Soyuz,1 49206U 21083W   24329.30170954  .00000070  00000+0  14393-3 0  9993,2 49206  87.9101  88.8469 0001654 105.3405 254.7909 13.18686377154866,13.18686377,0.0001654,LEO
49207,ONEWEB-0341,2021,109.2,148.0,+,87.91,Active,1,LEO,Kazakhstan,UK,Commercial,Communications,Soyuz,1 49207U 21083X   24329.30961414  .00000182  00000+0  42889-3 0  9998,2 49207  87.9100  88.8577 0001060 117.3926 242.7314 13.18684409154881,13.18684409,0.000106,LEO
49208,ONEWEB-0342,2021,109.03,148.0,+,87.93,Active,1,LEO,Kazakhstan,UK,Commercial,Communications,Soyuz,1 49208U 21083Y   24329.58403347 -.00000171  00000+0 -45352-3 0  9993,2 49208  87.9269  27.7796 0001802  94.0079 266.1260 13.20771891161598,13.20771891,0.0001802,LEO
49209,ONEWEB-0343,2021,109.2,148.0,+,87.91,Active,1,LEO,Kazakhstan,UK,Commercial,Communications,Soyuz,1 49209U 21083Z   24329.30487507  .00000194  00000+0  45843-3 0  9992,2 49209  87.9094  88.8563 0000923  95.8855 264.2383 13.18685154154937,13.18685154,9.23e-05,LEO
49210,ONEWEB-0344,2021,109.63,148.0,+,87.89,Active,1,LEO,Kazakhstan,UK,Commercial,Communications,Soyuz,1 49210U 21083AA  24329.28446295  .00000406  00000+0  10775-2 0  9991,2 49210  87.8930  73.6123 0001419 118.3865 241.7407 13.13470299156086,13.13470299,0.0001419,LEO
49211,ONEWEB-0345,2021,109.63,148.0,+,87.89,Active,1,LEO,Kazakhstan,UK,Commercial,Communications,Soyuz,1 49211U 21083AB  24329.30192479  .00000187  00000+0  47843-3 0  9990,2 49211  87.8931  73.5799 0001427 122.4244 237.7024 13.13468121156094,13.13468121,0.0001427,LEO
49212,ONEWEB-0346,2021,109.2,148.0,+,87.91,Active,1,LEO,Kazakhstan,UK,Commercial,Communications,Soyuz,1 49212U 21083AC  24329.31434127 -.00000169  00000+0 -46174-3 0  9999,2 49212  87.9099  88.8651 0001874 108.7338 251.3998 13.18687382154877,13.18687382,0.0001874,LEO
49213,ONEWEB-0348,2021,109.03,148.0,+,87.93,Active,1,LEO,Kazakhstan,UK,Commercial,Communications,Soyuz,1 49213U 21083AD  24328.66551651  .00000115  00000+0  25163-3 0  9993,2 49213  87.9280  27.9492 0001976 118.5200 241.6133 13.20771567161500,13.20771567,0.0001976,LEO
